OBJECT_NAME,OBJECT_ID,EPOCH,MEAN_MOTION,ECCENTRICITY,INCLINATION,RA_OF_ASC_NODE,ARG_OF_PERICENTER,MEAN_ANOMALY,EPHEMERIS_TYPE,CLASSIFICATION_TYPE,NORAD_CAT_ID,ELEMENT_SET_NO,REV_AT_EPOCH,BSTAR,MEAN_MOTION_DOT,MEAN_MOTION_DDOT
NUSAT-49 (KLARA DAN VON NEUMANN),2024-149AJ,2026-05-11T04:25:59.772576,15.30224629,.00040629,97.3777,212.7229,77.1068,283.0627,0,U,60500,999,9647,.20354204E-3,.5876E-4,0
FLOCK 4BE-11,2024-149AK,2026-05-11T04:49:55.807104,15.41747566,.00044924,97.3696,214.9606,67.1541,293.0180,0,U,60501,999,9665,.26343374E-3,.11055E-3,0
YAM-7,2024-149AN,2026-05-11T14:23:55.774176,15.31304717,.00048293,97.3783,212.0130,75.6641,284.5136,0,U,60504,999,9645,.15200772E-3,.4519E-4,0
FLOCK 4BE-24,2024-149AP,2026-05-11T12:18:09.322560,15.41703173,.00046292,97.3713,215.5222,74.3435,285.8323,0,U,60505,999,9671,.30784833E-3,.12917E-3,0
LUR-1,2024-149AQ,2026-05-11T11:37:20.022528,15.29617523,.00056269,97.3739,210.5920,82.3262,277.8618,0,U,60506,999,9636,.15837201E-3,.4471E-4,0
TANAGER-1,2024-149AR,2026-05-11T05:40:27.539040,15.44548770,.00060868,97.3198,225.3560,82.2153,277.9787,0,U,60507,999,9733,.19332134E-3,.8893E-4,0
EAGLEEYE,2024-149AS,2026-05-11T12:44:46.546656,15.65021232,.0002003,97.3719,223.0275,58.1686,301.9769,0,U,60508,999,9719,.47406032E-3,.46585E-3,0
FLOCK 4BE-29,2024-149AT,2026-05-11T11:40:00.115680,15.42938267,.00038983,97.3804,216.8433,84.8638,275.3054,0,U,60509,999,9675,.25602607E-3,.11177E-3,0
TRANSPORTER-11 OBJECT AU,2024-149AU,2026-05-11T11:13:47.288352,15.39192201,.00048068,97.3725,214.9264,74.1766,286.0010,0,U,60510,999,9666,.23922127E-3,.9216E-4,0
FLOCK 4BE-2,2024-149AV,2026-05-11T12:50:50.955072,15.48985231,.00037023,97.3820,217.9015,84.0150,276.1523,0,U,60511,999,9682,.57012176E-3,.30823E-3,0
FLOCK 4BE-13,2024-149AW,2026-05-11T11:25:33.070944,15.40896548,.00048286,97.3716,215.5361,57.8671,302.3043,0,U,60512,999,9671,.22742044E-3,.9264E-4,0
FLOCK 4BE-27,2024-149AX,2026-05-11T05:03:30.708576,15.33801239,.00053607,97.3823,213.0637,83.3999,276.7854,0,U,60513,999,9647,.16952011E-3,.5463E-4,0
FLOCK 4BE-9,2024-149AY,2026-05-11T04:30:31.481568,15.39684900,.00040511,97.3788,215.1346,87.1796,272.9914,0,U,60514,999,9662,.27473176E-3,.1077E-3,0
FLOCK 4BE-6,2024-149BA,2026-05-11T04:31:38.505504,15.38565107,.00048131,97.3787,214.5604,83.5504,276.6289,0,U,60516,999,9658,.26437868E-3,.9987E-4,0
FLOCK 4BE-14,2024-149BB,2026-05-11T04:54:35.249760,15.39852761,.00056348,97.3692,214.6840,80.5101,279.6782,0,U,60517,999,9663,.25517456E-3,.10054E-3,0
FLOCK 4BE-1,2024-149BC,2026-05-11T04:37:52.920768,15.41363314,.00051725,97.3777,215.8200,80.3491,279.8340,0,U,60518,999,9667,.26417807E-3,.10946E-3,0
FLOCK 4BE-28,2024-149BD,2026-05-11T10:57:00.882144,15.43621202,.00052428,97.3743,216.6986,74.6999,285.4828,0,U,60519,999,9677,.28630529E-3,.12806E-3,0
IPERDRONE.0,2024-149BE,2026-05-11T12:25:49.523520,15.61817763,.00017011,97.3772,223.0703,47.1685,312.9715,0,U,60520,999,9718,.45419324E-3,.3934E-3,0
TRANSPORTER-11 OBJECT BF,2024-149BF,2026-05-11T12:42:06.700608,15.72302814,.00005159,97.3770,225.0351,352.9787,7.1469,0,U,60521,999,9730,.70769471E-3,.94233E-3,0
CONNECTA IOT-2,2024-149BG,2026-05-11T11:19:46.454880,15.23656181,.00081699,97.3840,210.1828,94.9179,265.2992,0,U,60522,999,9630,.12168634E-3,.2849E-4,0
PTD-R (TYVAK-0127),2024-149BH,2026-05-11T06:00:55.956960,15.87463120,.00011436,97.3760,228.7308,203.0875,157.0346,0,U,60523,999,9754,.54725895E-3,.145725E-2,0
CONNECTA IOT-4,2024-149BJ,2026-05-11T11:08:16.667520,15.40792610,.00062943,97.3794,215.4407,72.2396,287.9537,0,U,60524,999,9667,.28162201E-3,.11458E-3,0
ORESAT0.5,2024-149BK,2026-05-11T12:13:21.457632,15.43710185,.00062691,97.3716,216.9900,62.6049,297.5836,0,U,60525,999,9681,.27894387E-3,.12514E-3,0
DEIMOS,2024-149BL,2026-05-11T10:58:20.289792,15.42917795,.00064198,97.3776,217.0942,68.2246,291.9685,0,U,60526,999,9678,.28086653E-3,.12269E-3,0
CUAVA-2,2024-149BM,2026-05-11T11:06:30.907008,15.35267435,.00079063,97.3725,212.9452,71.3979,288.8122,0,U,60527,999,9653,.22788888E-3,.773E-4,0
ERNST,2024-149BN,2026-05-11T11:47:40.206048,15.38234928,.00073026,97.3803,214.9654,75.0874,285.1179,0,U,60528,999,9663,.23889246E-3,.8923E-4,0
TORO,2024-149BQ,2026-05-11T14:16:09.704064,14.96284745,.00015872,97.6790,206.9480,95.1971,264.9432,0,U,60530,999,9448,.75228045E-4,.793E-5,0
HYPSO-2,2024-149BR,2026-05-11T11:30:13.452768,14.98604028,.00021533,97.6813,208.2775,113.6363,246.5086,0,U,60531,999,9455,.13417825E-3,.1551E-4,0
LEMU NGE,2024-149BS,2026-05-11T10:28:57.166464,14.94799480,.00025425,97.6847,207.1417,114.5734,245.5752,0,U,60532,999,9446,.13451055E-3,.1407E-4,0
LEMUR-2-STELLA,2024-149BT,2026-05-11T11:15:59.458752,15.10996180,.00019641,97.6730,213.7899,123.4462,236.6955,0,U,60533,999,9495,.37683267E-3,.6228E-4,0
